{"type": "FeatureCollection", "features": [ {"type": "Feature", "properties": {"norad_id": 44542, "name": "BEIDOU-3 M24 (C46)", "group": "gnss", "lat": 25.849120002054825, "lon": -151.0303272664554, "alt_km": 21498.460540857686, "timestamp": "2025-12-23T16:57:12.594762+00:00", "meta": {"OBJECT_NAME": "BEIDOU-3 M24 (C46)", "OBJECT_ID": "2019-061A", "EPOCH": "2025-12-20T23:21:37.865088", "MEAN_MOTION": 1.86229471, "ECCENTRICITY": 0.0009592, "INCLINATION": 54.4004, "RA_OF_ASC_NODE": 188.7381, "ARG_OF_PERICENTER": 25.7188, "MEAN_ANOMALY": 334.3821, "EPHEMERIS_TYPE": 0, "CLASSIFICATION_TYPE": "U", "NORAD_CAT_ID": 44542, "ELEMENT_SET_NO": 999, "REV_AT_EPOCH": 4247, "BSTAR": 0, "MEAN_MOTION_DOT": 9.6e-07, "MEAN_MOTION_DDOT": 0}, "tle": {"line1": "1 44542U 19061A   25354.97335492  .00000096  00000+0  00000+0 0  9990", "line2": "2 44542  54.4004 188.7381 0009592  25.7188 334.3821  1.86229471 42471"}}, "geometry": {"type": "Point", "coordinates": [-151.0303272664554, 25.849120002054825]}}, {"type": "Feature", "properties": {"norad_id": 44543, "name": "BEIDOU-3 M23 (C45)", "group": "gnss", "lat": -41.704490490463165, "lon": 148.91930907665153, "alt_km": 21530.625729704116, "timestamp": "2025-12-23T16:57:12.594780+00:00", "meta": {"OBJECT_NAME": "BEIDOU-3 M23 (C45)", "OBJECT_ID": "2019-061B", "EPOCH": "2025-12-22T04:16:38.631360", "MEAN_MOTION": 1.86227761, "ECCENTRICITY": 0.00060882, "INCLINATION": 54.3995, "RA_OF_ASC_NODE": 188.6659, "ARG_OF_PERICENTER": 26.1092, "MEAN_ANOMALY": 334.4978, "EPHEMERIS_TYPE": 0, "CLASSIFICATION_TYPE": "U", "NORAD_CAT_ID": 44543, "ELEMENT_SET_NO": 999, "REV_AT_EPOCH": 4250, "BSTAR": 0, "MEAN_MOTION_DOT": 9.4e-07, "MEAN_MOTION_DDOT": 0}, "tle": {"line1": "1 44543U 19061B   25356.17822490  .00000094  00000+0  00000+0 0  9992", "line2": "2 44543  54.3995 188.6659 0006088  26.1092 334.4978  1.86227761 42501"}}, "geometry": {"type": "Point", "coordinates": [148.91930907665153, -41.704490490463165]}}, {"type": "Feature", "properties": {"norad_id": 44624, "name": "EUTELSAT 5 WEST B (EGNOS/PRN 121)", "group": "gnss", "lat": -0.0071505269169801575, "lon": -18.17598240952372, "alt_km": 35781.83579630257, "timestamp": "2025-12-23T16:57:12.594806+00:00", "meta": {"OBJECT_NAME": "EUTELSAT 5 WEST B (EGNOS/PRN 121)", "OBJECT_ID": "2019-067A", "EPOCH": "2025-12-23T06:15:40.832064", "MEAN_MOTION": 1.00271344, "ECCENTRICITY": 0.00030724, "INCLINATION": 0.0646, "RA_OF_ASC_NODE": 340.438, "ARG_OF_PERICENTER": 290.9122, "MEAN_ANOMALY": 269.6265, "EPHEMERIS_TYPE": 0, "CLASSIFICATION_TYPE": "U", "NORAD_CAT_ID": 44624, "ELEMENT_SET_NO": 999, "REV_AT_EPOCH": 2267, "BSTAR": 0, "MEAN_MOTION_DOT": -2.1e-07, "MEAN_MOTION_DDOT": 0}, "tle": {"line1": "1 44624U 19067A   25357.26088926 -.00000021  00000+0  00000+0 0  9998", "line2": "2 44624   0.0646 340.4380 0003072 290.9122 269.6265  1.00271344 22672"}}, "geometry": {"type": "Point", "coordinates": [-18.17598240952372, -0.0071505269169801575]}}, {"type": "Feature", "properties": {"norad_id": 44793, "name": "BEIDOU-3 M22 (C44)", "group": "gnss", "lat": 31.537971520900783, "lon": 99.61880163168284, "alt_km": 21531.44639108572, "timestamp": "2025-12-23T16:57:12.594825+00:00", "meta": {"OBJECT_NAME": "BEIDOU-3 M22 (C44)", "OBJECT_ID": "2019-078A", "EPOCH": "2025-12-22T23:04:03.320256", "MEAN_MOTION": 1.86232206, "ECCENTRICITY": 0.00060944, "INCLINATION": 54.0989, "RA_OF_ASC_NODE": 306.0279, "ARG_OF_PERICENTER": 24.0205, "MEAN_ANOMALY": 336.0117, "EPHEMERIS_TYPE": 0, "CLASSIFICATION_TYPE": "U", "NORAD_CAT_ID": 44793, "ELEMENT_SET_NO": 999, "REV_AT_EPOCH": 4136, "BSTAR": 0, "MEAN_MOTION_DOT": -5.4e-07, "MEAN_MOTION_DDOT": 0}, "tle": {"line1": "1 44793U 19078A   25356.96114954 -.00000054  00000+0  00000+0 0  9990", "line2": "2 44793  54.0989 306.0279 0006094  24.0205 336.0117  1.86232206 41368"}}, "geometry": {"type": "Point", "coordinates": [99.61880163168284, 31.537971520900783]}}, {"type": "Feature", "properties": {"norad_id": 44794, "name": "BEIDOU-3 M21 (C43)", "group": "gnss", "lat": 36.47798552800544, "lon": -21.673848126266577, "alt_km": 21514.0114232167, "timestamp": "2025-12-23T16:57:12.594843+00:00", "meta": {"OBJECT_NAME": "BEIDOU-3 M21 (C43)", "OBJECT_ID": "2019-078B", "EPOCH": "2025-12-22T00:36:11.320992", "MEAN_MOTION": 1.86227906, "ECCENTRICITY": 0.00042988, "INCLINATION": 54.0732, "RA_OF_ASC_NODE": 306.0255, "ARG_OF_PERICENTER": 12.7951, "MEAN_ANOMALY": 347.2162, "EPHEMERIS_TYPE": 0, "CLASSIFICATION_TYPE": "U", "NORAD_CAT_ID": 44794, "ELEMENT_SET_NO": 999, "REV_AT_EPOCH": 4135, "BSTAR": 0, "MEAN_MOTION_DOT": -5.8e-07, "MEAN_MOTION_DDOT": 0}, "tle": {"line1": "1 44794U 19078B   25356.02513103 -.00000058  00000+0  00000+0 0  9991", "line2": "2 44794  54.0732 306.0255 0004298  12.7951 347.2162  1.86227906 41359"}}, "geometry": {"type": "Point", "coordinates": [-21.673848126266577, 36.47798552800544]}}, {"type": "Feature", "properties": {"norad_id": 44850, "name": "COSMOS 2544 (759)", "group": "gnss", "lat": 37.09785308398092, "lon": -120.56741276406977, "alt_km": 19139.129391113565, "timestamp": "2025-12-23T16:57:12.594861+00:00", "meta": {"OBJECT_NAME": "COSMOS 2544 (759)", "OBJECT_ID": "2019-088A", "EPOCH": "2025-12-22T02:49:35.422176", "MEAN_MOTION": 2.13102165, "ECCENTRICITY": 0.00143119, "INCLINATION": 65.4645, "RA_OF_ASC_NODE": 79.6449, "ARG_OF_PERICENTER": 250.3028, "MEAN_ANOMALY": 109.5843, "EPHEMERIS_TYPE": 0, "CLASSIFICATION_TYPE": "U", "NORAD_CAT_ID": 44850, "ELEMENT_SET_NO": 999, "REV_AT_EPOCH": 4694, "BSTAR": 0, "MEAN_MOTION_DOT": -3e-08, "MEAN_MOTION_DDOT": 0}, "tle": {"line1": "1 44850U 19088A   25356.11777109 -.00000003  00000+0  00000+0 0  9993", "line2": "2 44850  65.4645  79.6449 0014311 250.3028 109.5843  2.13102165 46946"}}, "geometry": {"type": "Point", "coordinates": [-120.56741276406977, 37.09785308398092]}}, {"type": "Feature", "properties": {"norad_id": 44864, "name": "BEIDOU-3 M19 (C41)", "group": "gnss", "lat": -47.87106501134341, "lon": -64.15973677041197, "alt_km": 21495.495754656527, "timestamp": "2025-12-23T16:57:12.594881+00:00", "meta": {"OBJECT_NAME": "BEIDOU-3 M19 (C41)", "OBJECT_ID": "2019-090A", "EPOCH": "2025-12-23T08:14:02.545728", "MEAN_MOTION": 1.86231621, "ECCENTRICITY": 0.00183506, "INCLINATION": 56.4016, "RA_OF_ASC_NODE": 68.6102, "ARG_OF_PERICENTER": 285.1686, "MEAN_ANOMALY": 74.3057, "EPHEMERIS_TYPE": 0, "CLASSIFICATION_TYPE": "U", "NORAD_CAT_ID": 44864, "ELEMENT_SET_NO": 999, "REV_AT_EPOCH": 4095, "BSTAR": 0, "MEAN_MOTION_DOT": -2.5e-07, "MEAN_MOTION_DDOT": 0}, "tle": {"line1": "1 44864U 19090A   25357.34308502 -.00000025  00000+0  00000+0 0  9998", "line2": "2 44864  56.4016  68.6102 0018350 285.1686  74.3057  1.86231621 40950"}}, "geometry": {"type": "Point", "coordinates": [-64.15973677041197, -47.87106501134341]}}, {"type": "Feature", "properties": {"norad_id": 44865, "name": "BEIDOU-3 M20 (C42)", "group": "gnss", "lat": -22.448682991850923, "lon": 52.73221367050762, "alt_km": 21495.846072190558, "timestamp": "2025-12-23T16:57:12.594899+00:00", "meta": {"OBJECT_NAME": "BEIDOU-3 M20 (C42)", "OBJECT_ID": "2019-090B", "EPOCH": "2025-12-23T05:19:57.002592", "MEAN_MOTION": 1.86231582, "ECCENTRICITY": 0.00155076, "INCLINATION": 56.4032, "RA_OF_ASC_NODE": 68.6485, "ARG_OF_PERICENTER": 297.2888, "MEAN_ANOMALY": 70.7426, "EPHEMERIS_TYPE": 0, "CLASSIFICATION_TYPE": "U", "NORAD_CAT_ID": 44865, "ELEMENT_SET_NO": 999, "REV_AT_EPOCH": 4094, "BSTAR": 0, "MEAN_MOTION_DOT": -2.6e-07, "MEAN_MOTION_DDOT": 0}, "tle": {"line1": "1 44865U 19090B   25357.22218753 -.00000026  00000+0  00000+0 0  9995", "line2": "2 44865  56.4032  68.6485 0015507 297.2888  70.7426  1.86231582 40947"}}, "geometry": {"type": "Point", "coordinates": [52.73221367050762, -22.448682991850923]}}, {"type": "Feature", "properties": {"norad_id": 45344, "name": "BEIDOU-3 G2 (C60)", "group": "gnss", "lat": 0.9966910656437912, "lon": 66.82516868201088, "alt_km": 35793.28233145553, "timestamp": "2025-12-23T16:57:12.594917+00:00", "meta": {"OBJECT_NAME": "BEIDOU-3 G2 (C60)", "OBJECT_ID": "2020-017A", "EPOCH": "2025-12-19T13:38:45.370752", "MEAN_MOTION": 1.00273166, "ECCENTRICITY": 0.0002079, "INCLINATION": 2.5096, "RA_OF_ASC_NODE": 44.0024, "ARG_OF_PERICENTER": 233.0917, "MEAN_ANOMALY": 96.0359, "EPHEMERIS_TYPE": 0, "CLASSIFICATION_TYPE": "U", "NORAD_CAT_ID": 45344, "ELEMENT_SET_NO": 999, "REV_AT_EPOCH": 2145, "BSTAR": 0, "MEAN_MOTION_DOT": -1.18e-06, "MEAN_MOTION_DDOT": 0}, "tle": {"line1": "1 45344U 20017A   25353.56858068 -.00000118  00000+0  00000+0 0  9993", "line2": "2 45344   2.5096  44.0024 0002079 233.0917  96.0359  1.00273166 21451"}}, "geometry": {"type": "Point", "coordinates": [66.82516868201088, 0.9966910656437912]}}, {"type": "Feature", "properties": {"norad_id": 45358, "name": "COSMOS 2545 (760)", "group": "gnss", "lat": -10.276278450928668, "lon": -46.4000392431606, "alt_km": 19135.773520862196, "timestamp": "2025-12-23T16:57:12.594938+00:00", "meta": {"OBJECT_NAME": "COSMOS 2545 (760)", "OBJECT_ID": "2020-018A", "EPOCH": "2025-12-22T07:31:25.141152", "MEAN_MOTION": 2.13102698, "ECCENTRICITY": 0.00113434, "INCLINATION": 64.464, "RA_OF_ASC_NODE": 318.6341, "ARG_OF_PERICENTER": 250.3607, "MEAN_ANOMALY": 109.513, "EPHEMERIS_TYPE": 0, "CLASSIFICATION_TYPE": "U", "NORAD_CAT_ID": 45358, "ELEMENT_SET_NO": 999, "REV_AT_EPOCH": 4489, "BSTAR": 0, "MEAN_MOTION_DOT": -4.2e-07, "MEAN_MOTION_DDOT": 0}, "tle": {"line1": "1 45358U 20018A   25356.31348543 -.00000042  00000+0  00000+0 0  9993", "line2": "2 45358  64.4640 318.6341 0011343 250.3607 109.5130  2.13102698 44898"}}, "geometry": {"type": "Point", "coordinates": [-46.4000392431606, -10.276278450928668]}}]}